line1,line2,validFromUtcTime
1 00000U 00000E   26001.00000000  .00000000  00000-0  27772-4 0    01,2 00000  88.8732 120.3345 0010138 270.2541  29.6748 13.55281810    00,2026-01-01T00:00:00Z
1 00000U 00000E   26002.00000000  .00000000  00000-0  27772-4 0    02,2 00000  88.8732 120.2199 0010138 267.3443 228.6878 13.55281848    00,2026-01-02T00:00:00Z
